{
  "links" : {
    "next" : "https://api.nasa.gov/neo/rest/v1/neo/browse?page=7&size=20&api_key=jqAGvNAwUIBu4fl9FSOjdm3V4F7hIglRzI6pdX9d",
    "prev" : "https://api.nasa.gov/neo/rest/v1/neo/browse?page=5&size=20&api_key=jqAGvNAwUIBu4fl9FSOjdm3V4F7hIglRzI6pdX9d",
    "self" : "https://api.nasa.gov/neo/rest/v1/neo/browse?page=6&size=20&api_key=jqAGvNAwUIBu4fl9FSOjdm3V4F7hIglRzI6pdX9d"
  },
  "page" : {
    "size" : 20,
    "total_elements" : 20750,
    "total_pages" : 1038,
    "number" : 6
  },
  "near_earth_objects" : [ {
    "links" : {
      "self" : "https://api.nasa.gov/neo/rest/v1/neo/3091724?api_key=jqAGvNAwUIBu4fl9FSOjdm3V4F7hIglRzI6pdX9d"
    },
    "neo_reference_id" : "3091724",
    "name" : "(2001 PG14)",
    "designation" : "2001 PG14",
    "nasa_jpl_url" : "http://ssd.jpl.nasa.gov/sbdb.cgi?sstr=3091724",
    "absolute_magnitude_h" : 22.5,
    "estimated_diameter" : {
      "kilometers" : {
        "estimated_diameter_min" : 0.0840533402,
        "estimated_diameter_max" : 0.1879489824
      },
      "meters" : {
        "estimated_diameter_min" : 84.0533402073,
        "estimated_diameter_max" : 187.9489824394
      },
      "miles" : {
        "estimated_diameter_min" : 0.0522283081,
        "estimated_diameter_max" : 0.1167860472
      },
      "feet" : {
        "estimated_diameter_min" : 275.7655606856,
        "estimated_diameter_max" : 616.6305395464
      }
    },
    "is_potentially_hazardous_asteroid" : false,
    "close_approach_data" : [ {
      "close_approach_date" : "1992-08-26",
      "epoch_date_close_approach" : 714812400000,
      "relative_velocity" : {
        "kilometers_per_second" : "17.3331504959",
        "kilometers_per_hour" : "62399.3417850744",
        "miles_per_hour" : "38772.5243441758"
      },
      "miss_distance" : {
        "astronomical" : "0.3347463185",
        "lunar" : "130.2163238525",
        "kilometers" : "50077340",
        "miles" : "31116616"
      },
      "orbiting_body" : "Earth"
    }, {
      "close_approach_date" : "2001-08-07",
      "epoch_date_close_approach" : 997167600000,
      "relative_velocity" : {
        "kilometers_per_second" : "8.5510894995",
        "kilometers_per_hour" : "30783.9221981528",
        "miles_per_hour" : "19127.9321014022"
      },
      "miss_distance" : {
        "astronomical" : "0.079847872",
        "lunar" : "31.0608215332",
        "kilometers" : "11945072",
        "miles" : "7422323.5"
      },
      "orbiting_body" : "Earth"
    }, {
      "close_approach_date" : "2010-04-27",
      "epoch_date_close_approach" : 1272351600000,
      "relative_velocity" : {
        "kilometers_per_second" : "10.7310262089",
        "kilometers_per_hour" : "38631.6943521772",
        "miles_per_hour" : "24004.2325267736"
      },
      "miss_distance" : {
        "astronomical" : "0.2201965809",
        "lunar" : "85.6564712524",
        "kilometers" : "32940940",
        "miles" : "20468550"
      },
      "orbiting_body" : "Earth"
    } ],
    "orbital_data" : {
      "orbit_id" : "14",
      "orbit_determination_date" : "2017-04-06 09:16:15",
      "first_observation_date" : "2001-08-14",
      "last_observation_date" : "2001-09-13",
      "data_arc_in_days" : 30,
      "observations_used" : 69,
      "orbit_uncertainty" : "7",
      "minimum_orbit_intersection" : ".0767256",
      "jupiter_tisserand_invariant" : "4.516",
      "epoch_osculation" : "2458600.5",
      "eccentricity" : ".3356325125560344",
      "semi_major_axis" : "1.473526303881311",
      "inclination" : "10.73719569735326",
      "ascending_node_longitude" : "154.6874345073981",
      "orbital_period" : "653.3340095200865",
      "perihelion_distance" : ".9789629681922201",
      "perihelion_argument" : "115.4541269494163",
      "aphelion_distance" : "1.968089639570403",
      "perihelion_time" : "2458622.443385792415",
      "mean_anomaly" : "347.9087591183685",
      "mean_motion" : ".5510198378689054",
      "equinox" : "J2000",
      "orbit_class" : {
        "orbit_class_type" : "APO",
        "orbit_class_range" : "a (semi-major axis) > 1.0 AU; q (perihelion) < 1.017 AU",
        "orbit_class_description" : "Near-Earth asteroid orbits which cross the Earth’s orbit similar to that of 1862 Apollo"
      }
    },
    "is_sentry_object" : false
  }, {
    "links" : {
      "self" : "https://api.nasa.gov/neo/rest/v1/neo/3091784?api_key=jqAGvNAwUIBu4fl9FSOjdm3V4F7hIglRzI6pdX9d"
    },
    "neo_reference_id" : "3091784",
    "name" : "(2001 QJ)",
    "designation" : "2001 QJ",
    "nasa_jpl_url" : "http://ssd.jpl.nasa.gov/sbdb.cgi?sstr=3091784",
    "absolute_magnitude_h" : 21.8,
    "estimated_diameter" : {
      "kilometers" : {
        "estimated_diameter_min" : 0.1160259082,
        "estimated_diameter_max" : 0.2594418179
      },
      "meters" : {
        "estimated_diameter_min" : 116.0259082094,
        "estimated_diameter_max" : 259.4418179074
      },
      "miles" : {
        "estimated_diameter_min" : 0.0720951346,
        "estimated_diameter_max" : 0.1612096218
      },
      "feet" : {
        "estimated_diameter_min" : 380.6624406898,
        "estimated_diameter_max" : 851.1870938635
      }
    },
    "is_potentially_hazardous_asteroid" : false,
    "close_approach_data" : [ {
      "close_approach_date" : "2001-08-16",
      "epoch_date_close_approach" : 997945200000,
      "relative_velocity" : {
        "kilometers_per_second" : "4.5642711308",
        "kilometers_per_hour" : "16431.376070789",
        "miles_per_hour" : "10209.81809243"
      },
      "miss_distance" : {
        "astronomical" : "0.2486275667",
        "lunar" : "96.7161254883",
        "kilometers" : "37194156",
        "miles" : "23111376"
      },
      "orbiting_body" : "Earth"
    } ],
    "orbital_data" : {
      "orbit_id" : "13",
      "orbit_determination_date" : "2017-04-06 09:16:15",
      "first_observation_date" : "2001-08-16",
      "last_observation_date" : "2001-09-22",
      "data_arc_in_days" : 37,
      "observations_used" : 29,
      "orbit_uncertainty" : "6",
      "minimum_orbit_intersection" : ".239544",
      "jupiter_tisserand_invariant" : "3.400",
      "epoch_osculation" : "2458600.5",
      "eccentricity" : ".4659934039719852",
      "semi_major_axis" : "2.34276822807246",
      "inclination" : "6.973079824760727",
      "ascending_node_longitude" : "316.1118238638954",
      "orbital_period" : "1309.762087981577",
      "perihelion_distance" : "1.251053686755558",
      "perihelion_argument" : "11.10409355676336",
      "aphelion_distance" : "3.434482769389362",
      "perihelion_time" : "2458699.285803119121",
      "mean_anomaly" : "332.8478252277954",
      "mean_motion" : ".2748590780748448",
      "equinox" : "J2000",
      "orbit_class" : {
        "orbit_class_type" : "AMO",
        "orbit_class_range" : "1.017 AU < q (perihelion) < 1.3 AU",
        "orbit_class_description" : "Near-Earth asteroid orbits similar to that of 1221 Amor"
      }
    },
    "is_sentry_object" : false
  }, {
    "links" : {
      "self" : "https://api.nasa.gov/neo/rest/v1/neo/3092308?api_key=jqAGvNAwUIBu4fl9FSOjdm3V4F7hIglRzI6pdX9d"
    },
    "neo_reference_id" : "3092308",
    "name" : "(2001 QD34)",
    "designation" : "2001 QD34",
    "nasa_jpl_url" : "http://ssd.jpl.nasa.gov/sbdb.cgi?sstr=3092308",
    "absolute_magnitude_h" : 22.8,
    "estimated_diameter" : {
      "kilometers" : {
        "estimated_diameter_min" : 0.0732073989,
        "estimated_diameter_max" : 0.1636967205
      },
      "meters" : {
        "estimated_diameter_min" : 73.2073989347,
        "estimated_diameter_max" : 163.696720474
      },
      "miles" : {
        "estimated_diameter_min" : 0.0454889547,
        "estimated_diameter_max" : 0.1017163949
      },
      "feet" : {
        "estimated_diameter_min" : 240.181762721,
        "estimated_diameter_max" : 537.0627483999
      }
    },
    "is_potentially_hazardous_asteroid" : false,
    "close_approach_data" : [ {
      "close_approach_date" : "2001-08-04",
      "epoch_date_close_approach" : 996908400000,
      "relative_velocity" : {
        "kilometers_per_second" : "8.2660717913",
        "kilometers_per_hour" : "29757.8584485876",
        "miles_per_hour" : "18490.3759899015"
      },
      "miss_distance" : {
        "astronomical" : "0.0597564115",
        "lunar" : "23.2452449799",
        "kilometers" : "8939432",
        "miles" : "5554705.5"
      },
      "orbiting_body" : "Earth"
    } ],
    "orbital_data" : {
      "orbit_id" : "9",
      "orbit_determination_date" : "2017-04-06 09:16:14",
      "first_observation_date" : "2001-08-17",
      "last_observation_date" : "2001-08-27",
      "data_arc_in_days" : 10,
      "observations_used" : 30,
      "orbit_uncertainty" : "8",
      "minimum_orbit_intersection" : ".0585425",
      "jupiter_tisserand_invariant" : "3.524",
      "epoch_osculation" : "2452142.5",
      "eccentricity" : ".5130627273899705",
      "semi_major_axis" : "2.136952965168755",
      "inclination" : "8.244894461946968",
      "ascending_node_longitude" : "149.1875469596669",
      "orbital_period" : "1141.013733956103",
      "perihelion_distance" : "1.040562048555189",
      "perihelion_argument" : "146.8638392351582",
      "aphelion_distance" : "3.233343881782321",
      "perihelion_time" : "2452111.418006401461",
      "mean_anomaly" : "9.806645934644397",
      "mean_motion" : ".3155089104421331",
      "equinox" : "J2000",
      "orbit_class" : {
        "orbit_class_type" : "AMO",
        "orbit_class_range" : "1.017 AU < q (perihelion) < 1.3 AU",
        "orbit_class_description" : "Near-Earth asteroid orbits similar to that of 1221 Amor"
      }
    },
    "is_sentry_object" : false
  } ]
}